QIANFAN-105             
1 66047U 25233Q   25332.05764585  .00000243  00000+0  13924-3 0  9993
2 66047  88.9963  63.7525 0017462  84.2190 276.0982 14.06027776  5931
QIANFAN-106             
1 66048U 25233R   25332.71630211  .00000133  00000+0  77256-4 0  9992
2 66048  88.9961  63.6831 0018151  83.0011 277.3232 14.02406359  6021
QIANFAN-107             
1 66049U 25233S   25333.27027030  .00000304  00000+0  18854-3 0  9992
2 66049  89.0002  63.6225 0017083  81.8270 278.4847 14.02573002  6106
QIANFAN-108             
1 66050U 25233T   25332.77819515  .00000221  00000+0  13287-3 0  9998
2 66050  88.9970  63.6736 0017189  84.7290 275.5852 14.03138561  6032
