<?xml version="1.0" encoding="UTF-8"?>
<ndm xmlns:xsi="http://www.w3.org/2001/XMLSchema-instance" xsi:noNamespaceSchemaLocation="https://sanaregistry.org/r/ndmxml_unqualified/ndmxml-2.0.0-master-2.0.xsd">
<omm id="CCSDS_OMM_VERS" version="2.0">
<header><CREATION_DATE/><ORIGINATOR/></header><body><segment><metadata><OBJECT_NAME>QIANFAN-105</OBJECT_NAME><OBJECT_ID>2025-233Q</OBJECT_ID><CENTER_NAME>EARTH</CENTER_NAME><REF_FRAME>TEME</REF_FRAME><TIME_SYSTEM>UTC</TIME_SYSTEM><MEAN_ELEMENT_THEORY>SGP4</MEAN_ELEMENT_THEORY></metadata><data><meanElements><EPOCH>2025-11-28T01:23:00.601440</EPOCH><MEAN_MOTION>14.06027776</MEAN_MOTION><ECCENTRICITY>.00174627</ECCENTRICITY><INCLINATION>88.9963</INCLINATION><RA_OF_ASC_NODE>63.7525</RA_OF_ASC_NODE><ARG_OF_PERICENTER>84.2190</ARG_OF_PERICENTER><MEAN_ANOMALY>276.0982</MEAN_ANOMALY></meanElements><tleParameters><EPHEMERIS_TYPE>0</EPHEMERIS_TYPE><CLASSIFICATION_TYPE>U</CLASSIFICATION_TYPE><NORAD_CAT_ID>66047</NORAD_CAT_ID><ELEMENT_SET_NO>999</ELEMENT_SET_NO><REV_AT_EPOCH>593</REV_AT_EPOCH><BSTAR>.13923615E-3</BSTAR><MEAN_MOTION_DOT>.243E-5</MEAN_MOTION_DOT><MEAN_MOTION_DDOT>0</MEAN_MOTION_DDOT></tleParameters></data></segment></body></omm>
<omm id="CCSDS_OMM_VERS" version="2.0">
<header><CREATION_DATE/><ORIGINATOR/></header><body><segment><metadata><OBJECT_NAME>QIANFAN-106</OBJECT_NAME><OBJECT_ID>2025-233R</OBJECT_ID><CENTER_NAME>EARTH</CENTER_NAME><REF_FRAME>TEME</REF_FRAME><TIME_SYSTEM>UTC</TIME_SYSTEM><MEAN_ELEMENT_THEORY>SGP4</MEAN_ELEMENT_THEORY></metadata><data><meanElements><EPOCH>2025-11-28T17:11:28.502304</EPOCH><MEAN_MOTION>14.02406359</MEAN_MOTION><ECCENTRICITY>.0018151</ECCENTRICITY><INCLINATION>88.9961</INCLINATION><RA_OF_ASC_NODE>63.6831</RA_OF_ASC_NODE><ARG_OF_PERICENTER>83.0011</ARG_OF_PERICENTER><MEAN_ANOMALY>277.3232</MEAN_ANOMALY></meanElements><tleParameters><EPHEMERIS_TYPE>0</EPHEMERIS_TYPE><CLASSIFICATION_TYPE>U</CLASSIFICATION_TYPE><NORAD_CAT_ID>66048</NORAD_CAT_ID><ELEMENT_SET_NO>999</ELEMENT_SET_NO><REV_AT_EPOCH>602</REV_AT_EPOCH><BSTAR>.77256049E-4</BSTAR><MEAN_MOTION_DOT>.133E-5</MEAN_MOTION_DOT><MEAN_MOTION_DDOT>0</MEAN_MOTION_DDOT></tleParameters></data></segment></body></omm>
<omm id="CCSDS_OMM_VERS" version="2.0">
<header><CREATION_DATE/><ORIGINATOR/></header><body><segment><metadata><OBJECT_NAME>QIANFAN-107</OBJECT_NAME><OBJECT_ID>2025-233S</OBJECT_ID><CENTER_NAME>EARTH</CENTER_NAME><REF_FRAME>TEME</REF_FRAME><TIME_SYSTEM>UTC</TIME_SYSTEM><MEAN_ELEMENT_THEORY>SGP4</MEAN_ELEMENT_THEORY></metadata><data><meanElements><EPOCH>2025-11-29T06:29:11.353920</EPOCH><MEAN_MOTION>14.02573002</MEAN_MOTION><ECCENTRICITY>.00170838</ECCENTRICITY><INCLINATION>89.0002</INCLINATION><RA_OF_ASC_NODE>63.6225</RA_OF_ASC_NODE><ARG_OF_PERICENTER>81.8270</ARG_OF_PERICENTER><MEAN_ANOMALY>278.4847</MEAN_ANOMALY></meanElements><tleParameters><EPHEMERIS_TYPE>0</EPHEMERIS_TYPE><CLASSIFICATION_TYPE>U</CLASSIFICATION_TYPE><NORAD_CAT_ID>66049</NORAD_CAT_ID><ELEMENT_SET_NO>999</ELEMENT_SET_NO><REV_AT_EPOCH>610</REV_AT_EPOCH><BSTAR>.18853768E-3</BSTAR><MEAN_MOTION_DOT>.304E-5</MEAN_MOTION_DOT><MEAN_MOTION_DDOT>0</MEAN_MOTION_DDOT></tleParameters></data></segment></body></omm>
<omm id="CCSDS_OMM_VERS" version="2.0">
<header><CREATION_DATE/><ORIGINATOR/></header><body><segment><metadata><OBJECT_NAME>QIANFAN-108</OBJECT_NAME><OBJECT_ID>2025-233T</OBJECT_ID><CENTER_NAME>EARTH</CENTER_NAME><REF_FRAME>TEME</REF_FRAME><TIME_SYSTEM>UTC</TIME_SYSTEM><MEAN_ELEMENT_THEORY>SGP4</MEAN_ELEMENT_THEORY></metadata><data><meanElements><EPOCH>2025-11-28T18:40:36.060960</EPOCH><MEAN_MOTION>14.03138561</MEAN_MOTION><ECCENTRICITY>.00171898</ECCENTRICITY><INCLINATION>88.9970</INCLINATION><RA_OF_ASC_NODE>63.6736</RA_OF_ASC_NODE><ARG_OF_PERICENTER>84.7290</ARG_OF_PERICENTER><MEAN_ANOMALY>275.5852</MEAN_ANOMALY></meanElements><tleParameters><EPHEMERIS_TYPE>0</EPHEMERIS_TYPE><CLASSIFICATION_TYPE>U</CLASSIFICATION_TYPE><NORAD_CAT_ID>66050</NORAD_CAT_ID><ELEMENT_SET_NO>999</ELEMENT_SET_NO><REV_AT_EPOCH>603</REV_AT_EPOCH><BSTAR>.13286621E-3</BSTAR><MEAN_MOTION_DOT>.221E-5</MEAN_MOTION_DOT><MEAN_MOTION_DDOT>0</MEAN_MOTION_DDOT></tleParameters></data></segment></body></omm>
</ndm>
